LEGION 1                
1 59625U 24081A   26198.90377623  .00001767  00000+0  93184-4 0  9994
2 59625  97.5010 276.4351 0007765 258.4134 101.6227 15.16853897122198
LEGION 2                
1 59626U 24081B   26198.93420165  .00001877  00000+0  98777-4 0  9993
2 59626  97.5010 276.5619 0010413 222.9654 137.0767 15.16833315122201
LEGION 3                
1 60452U 24146A   26198.90700994  .00001168  00000+0  74029-4 0  9999
2 60452  45.0016 225.8528 0007959 348.7581  11.3118 15.15663952106682
LEGION 4                
1 60453U 24146B   26198.84079519  .00001635  00000+0  98034-4 0  9996
2 60453  45.0026 318.0755 0009078 130.1467 230.0208 15.15691715105521
LEGION 5                
1 62900U 25025A   26198.84081880  .00000844  00000+0  57230-4 0  9990
2 62900  45.0019 137.0330 0007995 303.7651  56.2465 15.15709004 79141
LEGION 6                
1 62901U 25025B   26198.90587512  .00001808  00000+0  10691-3 0  9991
2 62901  45.0031  45.8320 0010723 290.6091  69.3637 15.15699172 80294
